CCSDS_OMM_VERS = 2.0
CREATION_DATE  = 
ORIGINATOR     = 

OBJECT_NAME    = SHIJIAN-16 (SJ-16)
OBJECT_ID      = 2013-057A
CENTER_NAME    = EARTH
REF_FRAME      = TEME
TIME_SYSTEM    = UTC
MEAN_ELEMENT_THEORY = SGP/SGP4

EPOCH          = 2025-11-25T20:06:57.871584
MEAN_MOTION    = 14.91915947
ECCENTRICITY   = .0017006
INCLINATION    = 74.9741
RA_OF_ASC_NODE = 21.6328
ARG_OF_PERICENTER = 0.0506
MEAN_ANOMALY   = 0.0680

EPHEMERIS_TYPE = 0
CLASSIFICATION_TYPE = U
NORAD_CAT_ID   = 39358
ELEMENT_SET_NO = 999
REV_AT_EPOCH   = 65601
BSTAR          = .24235E-3
MEAN_MOTION_DOT = .243E-4
MEAN_MOTION_DDOT = 0

CCSDS_OMM_VERS = 2.0
CREATION_DATE  = 
ORIGINATOR     = 

OBJECT_NAME    = SL-4 R/B
OBJECT_ID      = 2014-021B
CENTER_NAME    = EARTH
REF_FRAME      = TEME
TIME_SYSTEM    = UTC
MEAN_ELEMENT_THEORY = SGP/SGP4

EPOCH          = 2025-11-25T16:53:22.978752
MEAN_MOTION    = 15.36050021
ECCENTRICITY   = .0103116
INCLINATION    = 51.6060
RA_OF_ASC_NODE = 123.3481
ARG_OF_PERICENTER = 84.9821
MEAN_ANOMALY   = 276.2923

EPHEMERIS_TYPE = 0
CLASSIFICATION_TYPE = U
NORAD_CAT_ID   = 39679
ELEMENT_SET_NO = 999
REV_AT_EPOCH   = 64027
BSTAR          = .42404E-3
MEAN_MOTION_DOT = .1766E-3
MEAN_MOTION_DDOT = 0

CCSDS_OMM_VERS = 2.0
CREATION_DATE  = 
ORIGINATOR     = 

OBJECT_NAME    = ALOS-2
OBJECT_ID      = 2014-029A
CENTER_NAME    = EARTH
REF_FRAME      = TEME
TIME_SYSTEM    = UTC
MEAN_ELEMENT_THEORY = SGP/SGP4

EPOCH          = 2025-11-25T20:02:09.254112
MEAN_MOTION    = 14.79475093
ECCENTRICITY   = .0001328
INCLINATION    = 97.9239
RA_OF_ASC_NODE = 64.9210
ARG_OF_PERICENTER = 96.8256
MEAN_ANOMALY   = 263.3107

EPHEMERIS_TYPE = 0
CLASSIFICATION_TYPE = U
NORAD_CAT_ID   = 39766
ELEMENT_SET_NO = 999
REV_AT_EPOCH   = 62151
BSTAR          = -.81385E-4
MEAN_MOTION_DOT = -.659E-5
MEAN_MOTION_DDOT = 0

CCSDS_OMM_VERS = 2.0
CREATION_DATE  = 
ORIGINATOR     = 

OBJECT_NAME    = YAOGAN-29
OBJECT_ID      = 2015-069A
CENTER_NAME    = EARTH
REF_FRAME      = TEME
TIME_SYSTEM    = UTC
MEAN_ELEMENT_THEORY = SGP/SGP4

EPOCH          = 2025-11-25T21:11:01.152672
MEAN_MOTION    = 14.82854853
ECCENTRICITY   = .0001324
INCLINATION    = 98.0235
RA_OF_ASC_NODE = 352.9990
ARG_OF_PERICENTER = 24.4994
MEAN_ANOMALY   = 335.6282

EPHEMERIS_TYPE = 0
CLASSIFICATION_TYPE = U
NORAD_CAT_ID   = 41038
ELEMENT_SET_NO = 999
REV_AT_EPOCH   = 54049
BSTAR          = .76548E-4
MEAN_MOTION_DOT = .566E-5
MEAN_MOTION_DDOT = 0

CCSDS_OMM_VERS = 2.0
CREATION_DATE  = 
ORIGINATOR     = 

OBJECT_NAME    = ASTRO-H (HITOMI)
OBJECT_ID      = 2016-012A
CENTER_NAME    = EARTH
REF_FRAME      = TEME
TIME_SYSTEM    = UTC
MEAN_ELEMENT_THEORY = SGP/SGP4

EPOCH          = 2025-11-25T15:03:24.054336
MEAN_MOTION    = 15.09194502
ECCENTRICITY   = .0009636
INCLINATION    = 31.0009
RA_OF_ASC_NODE = 307.6777
ARG_OF_PERICENTER = 4.5368
MEAN_ANOMALY   = 355.5356

EPHEMERIS_TYPE = 0
CLASSIFICATION_TYPE = U
NORAD_CAT_ID   = 41337
ELEMENT_SET_NO = 999
REV_AT_EPOCH   = 53649
BSTAR          = .23586E-3
MEAN_MOTION_DOT = .3938E-4
MEAN_MOTION_DDOT = 0

CCSDS_OMM_VERS = 2.0
CREATION_DATE  = 
ORIGINATOR     = 

OBJECT_NAME    = HXMT (HUIYAN)
OBJECT_ID      = 2017-034A
CENTER_NAME    = EARTH
REF_FRAME      = TEME
TIME_SYSTEM    = UTC
MEAN_ELEMENT_THEORY = SGP/SGP4

EPOCH          = 2025-11-25T20:37:36.289920
MEAN_MOTION    = 15.16025257
ECCENTRICITY   = .0033823
INCLINATION    = 43.0133
RA_OF_ASC_NODE = 233.2878
ARG_OF_PERICENTER = 297.4075
MEAN_ANOMALY   = 62.3334

EPHEMERIS_TYPE = 0
CLASSIFICATION_TYPE = U
NORAD_CAT_ID   = 42758
ELEMENT_SET_NO = 999
REV_AT_EPOCH   = 46677
BSTAR          = .40969E-3
MEAN_MOTION_DOT = .7902E-4
MEAN_MOTION_DDOT = 0

CCSDS_OMM_VERS = 2.0
CREATION_DATE  = 
ORIGINATOR     = 

OBJECT_NAME    = CZ-2C R/B
OBJECT_ID      = 2018-054D
CENTER_NAME    = EARTH
REF_FRAME      = TEME
TIME_SYSTEM    = UTC
MEAN_ELEMENT_THEORY = SGP/SGP4

EPOCH          = 2025-11-25T06:29:30.204672
MEAN_MOTION    = 15.70089799
ECCENTRICITY   = .00210135
INCLINATION    = 35.1360
RA_OF_ASC_NODE = 298.9963
ARG_OF_PERICENTER = 325.5655
MEAN_ANOMALY   = 34.3714

EPHEMERIS_TYPE = 0
CLASSIFICATION_TYPE = U
NORAD_CAT_ID   = 43521
ELEMENT_SET_NO = 999
REV_AT_EPOCH   = 41230
BSTAR          = .84306311E-3
MEAN_MOTION_DOT = .108199E-2
MEAN_MOTION_DDOT = 0

CCSDS_OMM_VERS = 2.0
CREATION_DATE  = 
ORIGINATOR     = 

OBJECT_NAME    = SAOCOM 1A
OBJECT_ID      = 2018-076A
CENTER_NAME    = EARTH
REF_FRAME      = TEME
TIME_SYSTEM    = UTC
MEAN_ELEMENT_THEORY = SGP/SGP4

EPOCH          = 2025-11-25T20:40:57.459360
MEAN_MOTION    = 14.82149637
ECCENTRICITY   = .0001577
INCLINATION    = 97.8859
RA_OF_ASC_NODE = 154.5292
ARG_OF_PERICENTER = 89.8699
MEAN_ANOMALY   = 270.2695

EPHEMERIS_TYPE = 0
CLASSIFICATION_TYPE = U
NORAD_CAT_ID   = 43641
ELEMENT_SET_NO = 999
REV_AT_EPOCH   = 38598
BSTAR          = .82375E-4
MEAN_MOTION_DOT = .604E-5
MEAN_MOTION_DDOT = 0

CCSDS_OMM_VERS = 2.0
CREATION_DATE  = 
ORIGINATOR     = 

OBJECT_NAME    = H-2A R/B
OBJECT_ID      = 2018-084L
CENTER_NAME    = EARTH
REF_FRAME      = TEME
TIME_SYSTEM    = UTC
MEAN_ELEMENT_THEORY = SGP/SGP4

EPOCH          = 2025-11-25T12:06:38.132064
MEAN_MOTION    = 15.36519848
ECCENTRICITY   = .0028707
INCLINATION    = 98.8787
RA_OF_ASC_NODE = 160.0240
ARG_OF_PERICENTER = 25.2717
MEAN_ANOMALY   = 334.9920

EPHEMERIS_TYPE = 0
CLASSIFICATION_TYPE = U
NORAD_CAT_ID   = 43682
ELEMENT_SET_NO = 999
REV_AT_EPOCH   = 38975
BSTAR          = .61903E-3
MEAN_MOTION_DOT = .223E-3
MEAN_MOTION_DDOT = 0

CCSDS_OMM_VERS = 2.0
CREATION_DATE  = 
ORIGINATOR     = 

OBJECT_NAME    = SAOCOM 1B
OBJECT_ID      = 2020-059A
CENTER_NAME    = EARTH
REF_FRAME      = TEME
TIME_SYSTEM    = UTC
MEAN_ELEMENT_THEORY = SGP/SGP4

EPOCH          = 2025-11-25T19:48:45.182880
MEAN_MOTION    = 14.82158300
ECCENTRICITY   = .0001343
INCLINATION    = 97.8863
RA_OF_ASC_NODE = 153.5949
ARG_OF_PERICENTER = 90.2852
MEAN_ANOMALY   = 269.8515

EPHEMERIS_TYPE = 0
CLASSIFICATION_TYPE = U
NORAD_CAT_ID   = 46265
ELEMENT_SET_NO = 999
REV_AT_EPOCH   = 28336
BSTAR          = .84907E-4
MEAN_MOTION_DOT = .624E-5
MEAN_MOTION_DDOT = 0

CCSDS_OMM_VERS = 2.0
CREATION_DATE  = 
ORIGINATOR     = 

OBJECT_NAME    = CSS (TIANHE)
OBJECT_ID      = 2021-035A
CENTER_NAME    = EARTH
REF_FRAME      = TEME
TIME_SYSTEM    = UTC
MEAN_ELEMENT_THEORY = SGP/SGP4

EPOCH          = 2025-11-25T19:10:46.559136
MEAN_MOTION    = 15.58262718
ECCENTRICITY   = .0010763
INCLINATION    = 41.4666
RA_OF_ASC_NODE = 119.4772
ARG_OF_PERICENTER = 270.0332
MEAN_ANOMALY   = 89.9273

EPHEMERIS_TYPE = 0
CLASSIFICATION_TYPE = U
NORAD_CAT_ID   = 48274
ELEMENT_SET_NO = 999
REV_AT_EPOCH   = 26138
BSTAR          = .35869E-3
MEAN_MOTION_DOT = .27762E-3
MEAN_MOTION_DDOT = 0

CCSDS_OMM_VERS = 2.0
CREATION_DATE  = 
ORIGINATOR     = 

OBJECT_NAME    = COSMOS 2550
OBJECT_ID      = 2021-056A
CENTER_NAME    = EARTH
REF_FRAME      = TEME
TIME_SYSTEM    = UTC
MEAN_ELEMENT_THEORY = SGP/SGP4

EPOCH          = 2025-11-25T20:05:42.014976
MEAN_MOTION    = 15.33828536
ECCENTRICITY   = .0008345
INCLINATION    = 67.1435
RA_OF_ASC_NODE = 355.0615
ARG_OF_PERICENTER = 269.8902
MEAN_ANOMALY   = 90.1296

EPHEMERIS_TYPE = 0
CLASSIFICATION_TYPE = U
NORAD_CAT_ID   = 48865
ELEMENT_SET_NO = 999
REV_AT_EPOCH   = 24753
BSTAR          = .68835E-5
MEAN_MOTION_DOT = .35E-6
MEAN_MOTION_DDOT = 0

