SHIJIAN-16 (SJ-16)      
1 39358U 13057A   25329.83816981  .00002430  00000+0  24235-3 0  9996
2 39358  74.9741  21.6328 0017006   0.0506   0.0680 14.91915947656011
SL-4 R/B                
1 39679U 14021B   25329.70373818  .00017660  00000+0  42404-3 0  9996
2 39679  51.6060 123.3481 0103116  84.9821 276.2923 15.36050021640273
ALOS-2                  
1 39766U 14029A   25329.83482933 -.00000659  00000+0 -81385-4 0  9998
2 39766  97.9239  64.9210 0001328  96.8256 263.3107 14.79475093621510
YAOGAN-29               
1 41038U 15069A   25329.88265223  .00000566  00000+0  76548-4 0  9994
2 41038  98.0235 352.9990 0001324  24.4994 335.6282 14.82854853540493
ASTRO-H (HITOMI)        
1 41337U 16012A   25329.62736174  .00003938  00000+0  23586-3 0  9994
2 41337  31.0009 307.6777 0009636   4.5368 355.5356 15.09194502536495
HXMT (HUIYAN)           
1 42758U 17034A   25329.85944780  .00007902  00000+0  40969-3 0  9995
2 42758  43.0133 233.2878 0033823 297.4075  62.3334 15.16025257466773
CZ-2C R/B               
1 43521U 18054D   25329.27048848  .00108199  00000+0  84306-3 0  9996
2 43521  35.1360 298.9963 0021013 325.5655  34.3714 15.70089799412306
SAOCOM 1A               
1 43641U 18076A   25329.86177615  .00000604  00000+0  82375-4 0  9990
2 43641  97.8859 154.5292 0001577  89.8699 270.2695 14.82149637385982
H-2A R/B                
1 43682U 18084L   25329.50460801  .00022300  00000+0  61903-3 0  9997
2 43682  98.8787 160.0240 0028707  25.2717 334.9920 15.36519848389755
SAOCOM 1B               
1 46265U 20059A   25329.82552295  .00000624  00000+0  84907-4 0  9991
2 46265  97.8863 153.5949 0001343  90.2852 269.8515 14.82158300283369
CSS (TIANHE)            
1 48274U 21035A   25329.79914999  .00027762  00000+0  35869-3 0  9991
2 48274  41.4666 119.4772 0010763 270.0332  89.9273 15.58262718261382
COSMOS 2550             
1 48865U 21056A   25329.83729184  .00000035  00000+0  68835-5 0  9990
2 48865  67.1435 355.0615 0008345 269.8902  90.1296 15.33828536247532
